1 36585U 10022A   18001.59519024 -.00000064  00000-0  00000+0 0  9997
2 36585  55.8995 332.7530 0067514  44.5889 196.5871  2.00559979 55636
1 36585U 10022A   18002.53454470 -.00000066  00000-0  00000+0 0  9997
2 36585  55.8991 332.7157 0067570  44.5930 154.8298  2.00560030 55658
1 36585U 10022A   18003.55425503 -.00000066  00000-0  00000+0 0  9995
2 36585  55.8985 332.6752 0067633  44.6004 171.0892  2.00560091 55674
1 36585U 10022A   18003.55425503 -.00000066  00000-0  00000-0 0  9996
2 36585  55.8985 332.6752 0067633  44.6004 171.0892  2.00560091 55685
1 36585U 10022A   18004.42857848 -.00000067  00000-0  00000+0 0  9994
2 36585  55.8981 332.6405 0067686  44.6035  82.3785  2.00560149 55698
1 36585U 10022A   18004.56689817 -.00000067  00000-0  00000-0 0  9999
2 36585  55.8980 332.6350 0067693  44.6084 182.2455  2.00560157 55703
1 36585U 10022A   18005.39699199 -.00000068  00000-0  00000+0 0  9995
2 36585  55.8976 332.6020 0067745  44.6101  61.6010  2.00560217 55715
1 36585U 10022A   18005.58040972 -.00000068  00000-0  00000-0 0  9996
2 36585  55.8975 332.5947 0067755  44.6159 194.0294  2.00560229 55724
1 36585U 10022A   18006.40287146 -.00000070  00000-0  00000+0 0  9996
2 36585  55.8971 332.5621 0067807  44.6190  67.8732  2.00560293 55738
1 36585U 10022A   18007.54006303 -.00000074  00000-0  00000+0 0  9990
2 36585  55.8965 332.5169 0067878  44.6336 168.9519  2.00560381 55754
1 36585U 10022A   18008.50819602 -.00000078  00000-0  00000+0 0  9995
2 36585  55.8960 332.4785 0067933  44.6416 147.9711  2.00560459 55772
1 36585U 10022A   18009.56634508 -.00000084  00000-0  00000+0 0  9999
2 36585  55.8954 332.4365 0068003  44.6505 191.9845  2.00560545 55792
1 36585U 10022A   18010.09621611 -.00000086  00000-0  00000+0 0  9992
2 36585  55.8952 332.4154 0068032  44.6541 214.5672  2.00560588 55807
1 36585U 10022A   18010.57855076 -.00000088  00000-0  00000-0 0  9992
2 36585  55.8949 332.3963 0068061  44.6576 202.8271  2.00560626 55820
1 36585U 10022A   18011.48141167 -.00000091  00000-0  00000+0 0  9995
2 36585  55.8945 332.3604 0068121  44.6640 134.7197  2.00560699 55838
1 36585U 10022A   18012.53819413 -.00000092  00000-0  00000+0 0  9999
2 36585  55.8939 332.3185 0068184  44.6712 177.7487  2.00560778 55853
1 36585U 10022A   18013.00776000 -.00000092  00000-0  00000+0 0  9996
2 36585  55.8937 332.2999 0068216  44.6751 156.7889  2.00560813 55866
1 36585U 10022A   18014.35520800 -.00000088  00000-0  00000+0 0  9995
2 36585  55.8930 332.2464 0068307  44.6851  49.6868  2.00560906 55891
1 36585U 10022A   18014.56396529 -.00000087  00000-0  00000-0 0  9997
2 36585  55.8929 332.2382 0068314  44.6880 200.4147  2.00560917 55909
1 36585U 10022A   18015.47409689 -.00000082  00000-0  00000+0 0  9994
2 36585  55.8924 332.2021 0068372  44.7002 137.5519  2.00560972 55910
1 36585U 10022A   18016.58011368 -.00000075  00000-0  00000+0 0  9992
2 36585  55.8918 332.1582 0068436  44.7113 216.1269  2.00561027 55938
1 36585U 10022A   18017.06017676 -.00000071  00000-0  00000+0 0  9990
2 36585  55.8916 332.1392 0068464  44.7162 202.7459  2.00561048 55946
1 36585U 10022A   18019.56125859 -.00000056  00000-0  00000+0 0  9993
2 36585  55.8903 332.0400 0068604  44.7439 208.5954  2.00561135 55990
1 36585U 10022A   18020.46239234 -.00000052  00000-0  00000+0 0  9993
2 36585  55.8898 332.0042 0068664  44.7570 139.2358  2.00561160 56017
1 36585U 10022A   18020.56499788 -.00000052  00000-0  00000-0 0  9997
2 36585  55.8897 332.0001 0068668  44.7573 213.3207  2.00561161 56027
1 36585U 10022A   18021.04466431 -.00000050  00000-0  00000+0 0  9997
2 36585  55.8895 331.9811 0068696  44.7640 199.6517  2.00561170 56028
1 36585U 10022A   18021.45979649 -.00000049  00000-0  00000-0 0  9991
2 36585  55.8893 331.9646 0068722  44.7702 139.3871  2.00561180 56048
1 36585U 10022A   18022.05251913 -.00000049  00000-0  00000+0 0  9994
2 36585  55.8889 331.9411 0068758  44.7785 207.3477  2.00561193 56045
1 36585U 10022A   18023.06474823 -.00000050  00000-0  00000+0 0  9995
2 36585  55.8884 331.9009 0068819  44.7976 218.1976  2.00561213 56062
1 36585U 10022A   18024.01791015 -.00000052  00000-0  00000+0 0  9998
2 36585  55.8879 331.8631 0068880  44.8145 186.4010  2.00561236 56086
1 36585U 10022A   18025.46967269 -.00000057  00000-0  00000+0 0  9999
2 36585  55.8871 331.8054 0068966  44.8399 154.6055  2.00561276 56117
1 36585U 10022A   18026.27323861 -.00000061  00000-0  00000+0 0  9998
2 36585  55.8866 331.7734 0069006  44.8507  14.8010  2.00561299 56137
1 36585U 10022A   18029.47943882 -.00000070  00000-0  00000+0 0  9994
2 36585  55.8849 331.6460 0069187  44.9095 169.7473  2.00561440 56193
1 36585U 10022A   18030.02834493 -.00000070  00000-0  00000+0 0  9994
2 36585  55.8846 331.6242 0069222  44.9207 206.0685  2.00561470 56208
1 36585U 10022A   18031.03965050 -.00000070  00000-0  00000+0 0  9990
2 36585  55.8840 331.5840 0069284  44.9394 216.2534  2.00561530 56225
1 36585U 10022A   18032.42162230 -.00000071  00000-0  00000+0 0  9994
2 36585  55.8833 331.5291 0069376  44.9658 134.0669  2.00561624 56255
1 36585U 10022A   18033.42950559 -.00000072  00000-0  00000-0 0  9996
2 36585  55.8827 331.4890 0069436  44.9870 141.7788  2.00561699 56287
1 36585U 10022A   18034.01419970 -.00000074  00000-0  00000-0 0  9991
2 36585  55.8824 331.4658 0069468  45.0004 203.9387  2.00561741 56297
1 36585U 10022A   18034.29494516 -.00000075  00000-0  00000-0 0  9991
2 36585  55.8822 331.4546 0069486  45.0013  46.6475  2.00561765 56309
1 36585U 10022A   18035.41934219 -.00000079  00000-0  00000+0 0  9998
2 36585  55.8816 331.4100 0069554  45.0296 138.4805  2.00561853 56313
1 36585U 10022A   18036.40911949 -.00000084  00000-0  00000+0 0  9999
2 36585  55.8811 331.3706 0069613  45.0507 133.1198  2.00561933 56338
1 36585U 10022A   18037.51782127 -.00000090  00000-0  00000+0 0  9993
2 36585  55.8804 331.3266 0069674  45.0719 213.6278  2.00562021 56357
1 36585U 10022A   18038.46245740 -.00000093  00000-0  00000+0 0  9996
2 36585  55.8799 331.2891 0069730  45.0888 175.6780  2.00562098 56374
1 36585U 10022A   18039.47484398 -.00000095  00000-0  00000+0 0  9994
2 36585  55.8794 331.2488 0069787  45.1064 186.6463  2.00562174 56397
1 36585U 10022A   18040.39916912 -.00000094  00000-0  00000+0 0  9998
2 36585  55.8789 331.2121 0069851  45.1264 134.0284  2.00562244 56418
1 36585U 10022A   18041.03785490 -.00000092  00000-0  00000+0 0  9993
2 36585  55.8785 331.1868 0069884  45.1360 235.1773  2.00562289 56431
1 36585U 10022A   18042.52662424 -.00000085  00000-0  00000+0 0  9991
2 36585  55.8777 331.1277 0069974  45.1687 230.0999  2.00562388 56465
1 36585U 10022A   18043.52961883 -.00000078  00000-0  00000+0 0  9995
2 36585  55.8772 331.0878 0070029  45.1905 234.2836  2.00562445 56484
1 36585U 10022A   18044.47212219 -.00000071  00000-0  00000+0 0  9995
2 36585  55.8767 331.0504 0070079  45.2134 194.7890  2.00562491 56508
1 36585U 10022A   18045.48854937 -.00000063  00000-0  00000+0 0  9997
2 36585  55.8761 331.0100 0070133  45.2369 208.6703  2.00562534 56523
1 36585U 10022A   18046.03235279 -.00000060  00000-0  00000+0 0  9998
2 36585  55.8758 330.9884 0070161  45.2480 241.3090  2.00562555 56538
1 36585U 10022A   18047.51438451 -.00000052  00000-0  00000+0 0  9990
2 36585  55.8750 330.9296 0070240  45.2825 231.3664  2.00562596 56562
1 36585U 10022A   18049.27150366 -.00000047  00000-0  00000+0 0  9995
2 36585  55.8740 330.8598 0070338  45.3257  60.0408  2.00562639 56597
1 36585U 10022A   18050.96609997 -.00000048  00000-0  00000-0 0  9994
2 36585  55.8731 330.7924 0070427  45.3705 203.5698  2.00562674 56635
1 36585U 10022A   18051.49910235 -.00000049  00000-0  00000+0 0  9993
2 36585  55.8728 330.7712 0070455  45.3854 228.4065  2.00562686 56640
1 36585U 10022A   18052.44285458 -.00000052  00000-0  00000+0 0  9995
2 36585  55.8723 330.7337 0070499  45.4082 189.8149  2.00562710 56663
1 36585U 10022A   18053.23257208 -.00000055  00000-0  00000+0 0  9998
2 36585  55.8718 330.7023 0070545  45.4330  40.0014  2.00562730 56679
1 36585U 10022A   18054.25072477 -.00000058  00000-0  00000+0 0  9997
2 36585  55.8713 330.6618 0070594  45.4581  55.1284  2.00562764 56690
1 36585U 10022A   18055.01672931 -.00000060  00000-0  00000+0 0  9996
2 36585  55.8709 330.6313 0070637  45.4853 248.1911  2.00562792 56712
1 36585U 10022A   18055.01672931 -.00000060  00000-0  00000-0 0  9997
2 36585  55.8709 330.6313 0070637  45.4853 248.1911  2.00562792 56712
1 36585U 10022A   18055.95911598 -.00000062  00000-0  00000+0 0  9996
2 36585  55.8704 330.5938 0070689  45.5117 208.6107  2.00562833 56736
1 36585U 10022A   18055.95911598 -.00000062  00000-0  00000-0 0  9997
2 36585  55.8704 330.5938 0070689  45.5117 208.6107  2.00562833 56736
1 36585U 10022A   18057.44101355 -.00000063  00000-0  00000+0 0  9995
2 36585  55.8696 330.5349 0070759  45.5449 198.5749  2.00562904 56769
1 36585U 10022A   18058.23136323 -.00000063  00000-0  00000+0 0  9996
2 36585  55.8691 330.5034 0070798  45.5617  49.2267  2.00562952 56776
1 36585U 10022A   18059.24330345 -.00000062  00000-0  00000+0 0  9997
2 36585  55.8686 330.4632 0070857  45.5932  59.8624  2.00563014 56795
1 36585U 10022A   18060.25461219 -.00000063  00000-0  00000+0 0  9996
2 36585  55.8681 330.4230 0070904  45.6182  70.0489  2.00563081 56816
1 36585U 10022A   18062.98587310 -.00000073  00000-0  00000+0 0  9990
2 36585  55.8666 330.3143 0071047  45.7055 242.0590  2.00563283 56874
1 36585U 10022A   18063.93258912 -.00000078  00000-0  00000+0 0  9994
2 36585  55.8660 330.2767 0071091  45.7297 205.6081  2.00563358 56891
1 36585U 10022A   18064.94374536 -.00000082  00000-0  00000+0 0  9992
2 36585  55.8655 330.2365 0071134  45.7518 215.6885  2.00563439 56919
1 36585U 10022A   18064.94374536 -.00000082  00000-0  00000-0 0  9993
2 36585  55.8655 330.2365 0071134  45.7518 215.6885  2.00563439 56919
